{"spkid": "50180175", "covariance": {"data": [["7.10175380079736E-15", "-1.531823683696727E-14", "5.735744520829931E-13", "4.007227605037427E-13", "1.161667766139564E-12", "3.480877056138909E-13"], ["-1.531823683696727E-14", "3.304138252875586E-14", "-1.239968809153736E-12", "-8.672042796900553E-13", "-2.504674011407457E-12", "-7.55136146967348E-13"], ["5.735744520829931E-13", "-1.239968809153736E-12", "2.726921949084164E-10", "1.261483263848921E-10", "1.524603570841956E-10", "2.667496988956815E-10"], ["4.007227605037427E-13", "-8.672042796900553E-13", "1.261483263848921E-10", "4.004752805793126E-10", "-2.453208813813849E-10", "3.368413251991238E-10"], ["1.161667766139564E-12", "-2.504674011407457E-12", "1.524603570841956E-10", "-2.453208813813849E-10", "5.430802295905359E-10", "-1.035221638430867E-10"], ["3.480877056138909E-13", "-7.55136146967348E-13", "2.667496988956815E-10", "3.368413251991238E-10", "-1.035221638430867E-10", "5.264896683388472E-10"]], "elements": [{"label": "e", "name": "e", "sigma": 8.42719039822725e-08, "units": null, "title": "eccentricity", "value": ".6483124221307044"}, {"units": "au", "title": "perihelion distance", "value": ".7510540907207265", "name": "q", "sigma": 1.81772887221268e-07, "label": "q"}, {"units": "TDB", "value": "2459908.871713049717", "title": "time of perihelion passage", "name": "tp", "sigma": 1.65133944090371e-05, "label": "tp"}, {"label": "node", "value": "21.81707000886391", "title": "longitude of the ascending node", "units": "deg", "sigma": 2.00118784870215e-05, "name": "om"}, {"name": "w", "sigma": 2.33040818225163e-05, "units": "deg", "title": "argument of perihelion", "value": "105.9415698595703", "label": "peri"}, {"label": "i", "title": "inclination", "value": "13.40949306172617", "units": "deg", "sigma": 2.29453626761236e-05, "name": "i"}], "labels": ["e", "q", "tp", "node", "peri", "i"], "epoch": "2460308.5"}, "elements": [{"name": "e", "sigma": "8.4267E-8", "value": ".6486901159535758", "title": "eccentricity", "units": null, "label": "e"}, {"label": "a", "value": "2.13531034727827", "title": "semi-major axis", "units": "au", "name": "a", "sigma": "5.0865E-9"}, {"label": "q", "sigma": "1.8157E-7", "name": "q", "units": "au", "value": ".7501556305054589", "title": "perihelion distance"}, {"label": "i", "units": "deg", "title": "inclination; angle with respect to x-y ecliptic plane", "value": "13.41021558775497", "name": "i", "sigma": "2.2952E-5"}, {"title": "longitude of the ascending node", "value": "21.78038917772781", "units": "deg", "name": "om", "sigma": "2.0038E-5", "label": "node"}, {"units": "deg", "title": "argument of perihelion", "value": "105.9852306849066", "name": "w", "sigma": "2.3301E-5", "label": "peri"}, {"label": "M", "title": "mean anomaly", "value": "47.97685747925132", "units": "deg", "sigma": "4.6673E-6", "name": "ma"}, {"name": "tp", "sigma": "1.4897E-5", "units": "TDB", "title": "time of perihelion passage", "value": "2461048.613480292206", "label": "tp"}, {"label": "period", "sigma": "4.0723E-6", "name": "per", "units": "d", "title": "sidereal orbital period", "value": "1139.698387257924"}, {"label": "n", "name": "n", "sigma": "1.1286E-9", "title": "mean motion", "value": ".3158730450309296", "units": "deg/d"}, {"label": "Q", "title": "aphelion distance", "value": "3.520465064051082", "units": "au", "name": "ad", "sigma": "8.386E-9"}], "epoch": "2461200.5"}